line1,line2,validFromUtcTime
1 00000U 00000E   26001.00000000  .00000000  00000-0  27772-4 0    01,2 00000  88.8550  95.3333 0010026 269.8023  97.6873 13.55311184    03,2026-01-01T00:00:00Z
1 00000U 00000E   26002.00000000  .00000000  00000-0  27772-4 0    02,2 00000  88.8556  95.2167 0010089 265.4133 298.3001 13.55306443    01,2026-01-02T00:00:00Z
